#aV2014 11  2  0  0  0.00000000     288 DD+AD WGS84 FIT  NGA
## 1817      0.00000000   300.00000000 56963 0.0000000000000
+   31     1  2  4  5  6  7  8  9 10 11 12 13 14 15 16 17 18
+         19 20 21 22 23 24 25 26 27 28 29 30 31 32  0  0  0
+          0  0  0  0  0  0  0  0  0  0  0  0  0  0  0  0  0
+          0  0  0  0  0  0  0  0  0  0  0  0  0  0  0  0  0
+          0  0  0  0  0  0  0  0  0  0  0  0  0  0  0  0  0
++         2  2  2  2  2  2  2  2  2  2  2  2  2  2  2  2  2
++         2  2  2  2  2  2  2  2  2  2  2  2  2  2  0  0  0
++         0  0  0  0  0  0  0  0  0  0  0  0  0  0  0  0  0
++         0  0  0  0  0  0  0  0  0  0  0  0  0  0  0  0  0
++         0  0  0  0  0  0  0  0  0  0  0  0  0  0  0  0  0
%c cc cc ccc ccc cccc cccc cccc cccc ccccc ccccc ccccc ccccc
%c cc cc ccc ccc cccc cccc cccc cccc ccccc ccccc ccccc ccccc
%f  0.0000000  0.000000000  0.00000000000  0.000000000000000
%f  0.0000000  0.000000000  0.00000000000  0.000000000000000
%i    0    0    0    0      0      0      0      0         0
%i    0    0    0    0      0      0      0      0         0
/*      NGA, ST. LOUIS,MO.                                  
/*   EPHEMERIS COMPUTED FROM  1 DAYS OF DATA                
/*   EPOCHA SMOOTHER                                       
/* CCCCCCCCCCCCCCCCCCCCCCCCCCCCCCCCCCCCCCCCCCCCCCCCCCCCCCCCC
*  2014 11  2 11 20  0.00000000
P  1  13474.697545 -20672.699085   9561.618842    -12.564276                    
V  1  -1125.922397  12499.566261  28613.160254      0.004200                    
P  2 -15256.357061  -2977.315467 -21202.848122    527.731788                    
V  2   7037.247541 -26870.018309  -1749.443947      0.022121                    
P  4  15264.764517 -16442.264212  13659.767211     -2.414473                    
V  4  -2240.960406  18179.602333  24065.532049     -0.005498                    
P  5 -25785.457173   1116.971945  -6700.705834   -322.663976                    
V  5   7523.968065  -4788.111800 -29790.394094      0.043139                    
P  6  -8870.385204 -16372.132204 -18961.570356      5.443261                    
V  6   8303.375621 -22600.488815  15625.853157      0.042418                    
P  7   6477.439558 -25412.869385   2796.274305    408.579153                    
V  7   3701.866475  -2417.074250 -31974.339928      0.038977                    
P  8  15685.571050 -18094.227403 -10517.079377     16.165250                    
V  8  -3849.947597  13460.099132 -28970.295131      0.000941                    
P  9  -1375.388772 -19687.568581 -17767.515057      1.233749                    
V  9  16647.565834  15336.886085 -18292.185939     -0.063973                    
P 10 -15091.372980 -11104.922989 -19342.756629   -148.134698                    
V 10  22910.492721  -6272.328266 -14123.171616     -0.015676                    
P 11  12788.388364 -15848.508482  16451.414875   -533.325958                    
V 11   3893.129953  22086.206946  17861.105335     -0.028324                    
P 12 -22922.526732  10038.311966  -8658.383118    243.272216                    
V 12 -11082.257460    105.722867  29924.657253      0.027806                    
P 13 -12029.802160 -22873.878487  -5970.665323    -56.769324                    
V 13   6300.892566   4528.980953 -30983.570862     -0.037124                    
P 14  14317.760022  22171.190410   3862.901823    119.582118                    
V 14  -4730.308545  -2096.948128  31333.271654     -0.036236                    
P 15 -15097.139312   6649.887361  20799.884985   -212.207081                    
V 15 -18447.066478 -19182.480050  -6922.496819     -0.022240                    
P 16  25895.768867    204.013091  -6762.394629   -183.747833                    
V 16  -8041.919194   2867.945127 -30621.289688      0.027658                    
P 17 -14160.393085 -22075.916488   5185.576266   -134.859485                    
V 17   5713.560180   3267.635722  30913.677782     -0.025778                    
P 18  -1470.572033  16664.809979  21051.281766    355.514623                    
V 18 -25334.564144   5279.075709  -6404.656839      0.025611                    
P 19  17413.379670      4.241058  20013.914371   -486.294756                    
V 19  14961.076781  20840.348713 -12476.341660     -0.017314                    
P 20  17499.344114 -15379.957939 -12889.983681    252.076674                    
V 20  16367.878454  -1704.847015  24705.711216      0.042496                    
P 21   -770.479236  25113.510780   8577.130253   -392.679892                    
V 21  -6338.751136   8740.341390 -28765.998411     -0.020522                    
P 22  12862.366829  12376.580311  19928.354125    282.942319                    
V 22 -23926.775557   7146.125748  10958.083467      0.037303                    
P 23   9064.561706 -12676.456678 -21341.486365    -64.332369                    
V 23  19019.778608  19851.934508  -4110.690663     -0.028169                    
P 24 -14610.948626  18166.473095  12602.749082    -37.801196                    
V 24   2098.662929 -16145.828964  25785.787340     -0.005700                    
P 25 -11914.449978  15318.258597 -18150.760581     16.018426                    
V 25 -22611.583855   3842.330953  18297.064834     -0.015762                    
P 26 -19512.909540  -8121.701911  15596.369580   -109.163299                    
V 26 -11286.294717 -17654.508345 -22111.285983     -0.129256                    
P 27  21117.398701   8880.071019  13486.673521     26.839782                    
V 27  10189.529586  13905.429549 -25011.676838      0.028573                    
P 28  -7248.974912 -13669.813626  22221.120517    395.544669                    
V 28  26279.535230  -4450.721880   5883.495814      0.026835                    
P 29  -1047.259106  18747.975757 -18771.042638    570.590747                    
V 29 -16290.794704 -17469.679804 -16479.531484      0.024428                    
P 30   -842.716920 -23061.125987  13108.300136    -77.435574                    
V 30   8300.531567 -14645.948107 -25285.097238     -0.028266                    
P 31   9514.336872  14160.354361 -20113.447353    329.671944                    
V 31  -9425.934437  24180.916562  12780.069001     -0.005130                    
P 32  25746.218966  -4884.066928  -1645.549612   -303.440259                    
V 32   2652.978617   3364.609274  31729.043525      0.089275                    
EOF
